[{"OBJECT_NAME":"STARLINK-6254","OBJECT_ID":"2023-088AU","EPOCH":"2026-03-09T22:00:01.999584","MEAN_MOTION":15.05993771,"ECCENTRICITY":0.00023419,"INCLINATION":43.0003,"RA_OF_ASC_NODE":93.1369,"ARG_OF_PERICENTER":281.6589,"MEAN_ANOMALY":124.3021,"EPHEMERIS_TYPE":0,"CLASSIFICATION_TYPE":"U","NORAD_CAT_ID":57090,"ELEMENT_SET_NO":999,"REV_AT_EPOCH":578,"BSTAR":0.0062391158,"MEAN_MOTION_DOT":0.00093477,"MEAN_MOTION_DDOT":0},{"OBJECT_NAME":"CZ-4C R\/B","OBJECT_ID":"2010-009D","EPOCH":"2026-03-09T22:19:23.688192","MEAN_MOTION":13.72984009,"ECCENTRICITY":0.06900973,"INCLINATION":63.3888,"RA_OF_ASC_NODE":313.7289,"ARG_OF_PERICENTER":2.6464,"MEAN_ANOMALY":357.7935,"EPHEMERIS_TYPE":0,"CLASSIFICATION_TYPE":"U","NORAD_CAT_ID":36416,"ELEMENT_SET_NO":999,"REV_AT_EPOCH":80095,"BSTAR":0.00032412476,"MEAN_MOTION_DOT":1.649e-5,"MEAN_MOTION_DDOT":0}]
